ONEWEB-0650             
1 55813U 23029T   24052.43159156  .00000221  00000+0  52005-3 0  9994
2 55813  87.9162 113.5328 0001888  88.2395 271.8954 13.19726136 47219
ONEWEB-0652             
1 55814U 23029U   24052.58747805  .00000159  00000+0  39334-3 0  9995
2 55814  87.8923  98.2188 0002007 102.4902 257.6452 13.14503118 48140
ONEWEB-0653             
1 55815U 23029V   24052.57162002  .00000257  00000+0  65916-3 0  9999
2 55815  87.8924  98.1987 0002306 102.0991 258.0397 13.14502830 48170
ONEWEB-0654             
1 55816U 23029W   24052.56686454  .00000276  00000+0  71011-3 0  9995
2 55816  87.8922  98.2131 0002193 113.2929 246.8432 13.14503919 48196
ONEWEB-0656             
1 55817U 23029X   24052.77347429  .00000087  00000+0  18175-3 0  9997
2 55817  87.9131  82.8689 0001573 114.8759 245.2538 13.20770971 50101
ONEWEB-0657             
1 55818U 23029Y   24052.73011705  .00000069  00000+0  14071-3 0  9990
2 55818  87.9160 113.4787 0001140 120.6793 239.4452 13.19725383 47940
ONEWEB-0658             
1 55819U 23029Z   24052.57374998  .00000065  00000+0  13002-3 0  9998
2 55819  87.9161 113.4465 0001975  80.5429 279.5927 13.19724378 47250
ONEWEB-0660             
1 55820U 23029AA  24052.54466239 -.00000127  00000+0 -37675-3 0  9990
2 55820  87.8920  98.1931 0002464  90.4176 269.7236 13.14503237 48174
